*******************************************************************************
Ephemeris / WWW_USER Mon Mar 24 08:36:52 2025 Pasadena, USA      / Horizons    
*******************************************************************************
Target body name: (2019 AU)                       {source: JPL#11}
Center body name: Earth (399)                     {source: DE441}
Center-site name: Mauna Kea
*******************************************************************************
Start time      : A.D. 2018-Dec-24 03:59:00.0000 UT      
Stop  time      : A.D. 2018-Dec-24 16:43:00.0000 UT      
Step-size       : 1 minutes
*******************************************************************************
Target pole/equ : undefined
Target radii    : undefined                                                    
Center geodetic : 204.5278, 19.8260847, 4.21024   {E-lon(deg),Lat(deg),Alt(km)}
Center cylindric: 204.5278, 6006.35451, 2151.0229 {E-lon(deg),Dxy(km),Dz(km)}
Center pole/equ : ITRF93                          {East-longitude positive}
Center radii    : 6378.137, 6378.137, 6356.752 km {Equator_a, b, pole_c}       
Target primary  : Sun
Vis. interferer : MOON (R_eq= 1737.400) km        {source: DE441}
Rel. light bend : Sun                             {source: DE441}
Rel. lght bnd GM: 1.3271E+11 km^3/s^2                                          
Small-body perts: Yes                             {source: SB441-N16}
Atmos refraction: NO (AIRLESS)
RA format       : HMS
Time format     : CAL 
Calendar mode   : Mixed Julian/Gregorian
RTS-only print  : NO       
EOP file        : eop.250321.p250617                                           
EOP coverage    : DATA-BASED 1962-JAN-20 TO 2025-MAR-21. PREDICTS-> 2025-JUN-16
Units conversion: 1 au= 149597870.700 km, c= 299792.458 km/s, 1 day= 86400.0 s 
Table cut-offs 1: Elevation (-90.0deg=NO ),Airmass (>38.000=NO), Daylight (YES)
Table cut-offs 2: Solar elongation (  0.0,180.0=NO ),Local Hour Angle( 0.0=NO )
Table cut-offs 3: RA/DEC angular rate (     0.0=NO )                           
*******************************************************************************
Initial IAU76/J2000 heliocentric ecliptic osculating elements (au, days, deg.):
  EPOCH=  2458490.5 ! 2019-Jan-07.00 (TDB)         Residual RMS= .17143        
   EC= .1028488096127525   QR= .9927870416208908   TP= 2458466.0562707144      
   OM= 109.6543146265929   W=  330.7265060973358   IN= 5.020660041219873       
  Equivalent ICRF heliocentric cartesian coordinates (au, au/d):
   X=-2.730606646751524E-01  Y= 8.866895536052930E-01  Z= 3.780071563225811E-01
  VX=-1.742089442644723E-02 VY=-4.449382429672076E-03 VZ=-2.237797348809624E-04
Asteroid physical parameters (km, seconds, rotational period in hours):        
   GM= n.a.                RAD= n.a.               ROTPER= n.a.                
   H= 26.7                 G= .150                 B-V= n.a.                   
                           ALBEDO= n.a.            STYP= n.a.                  
*******************************************************************************
 Date__(UT)__HR:MN     R.A._________(ICRF)_________DEC
******************************************************
$$SOE
 2018-Dec-24 14:14  m  04 36 51.427406 -42 08 06.73596
 2018-Dec-24 14:15  m  04 36 51.633049 -42 08 01.08223
 2018-Dec-24 14:16  m  04 36 51.839171 -42 07 55.42766
 2018-Dec-24 14:17  m  04 36 52.045770 -42 07 49.77225
 2018-Dec-24 14:18  m  04 36 52.252847 -42 07 44.11603
 2018-Dec-24 14:19  m  04 36 52.460402 -42 07 38.45901
 2018-Dec-24 14:20  m  04 36 52.668436 -42 07 32.80120
 2018-Dec-24 14:21  m  04 36 52.876949 -42 07 27.14262
 2018-Dec-24 14:22  m  04 36 53.085941 -42 07 21.48329
 2018-Dec-24 14:23  m  04 36 53.295413 -42 07 15.82321
 2018-Dec-24 14:24  m  04 36 53.505364 -42 07 10.16241
 2018-Dec-24 14:25  m  04 36 53.715795 -42 07 04.50091
 2018-Dec-24 14:26  m  04 36 53.926706 -42 06 58.83871
 2018-Dec-24 14:27  m  04 36 54.138097 -42 06 53.17583
 2018-Dec-24 14:28  m  04 36 54.349968 -42 06 47.51229
 2018-Dec-24 14:29  m  04 36 54.562320 -42 06 41.84810
 2018-Dec-24 14:30  m  04 36 54.775153 -42 06 36.18328
 2018-Dec-24 14:31  m  04 36 54.988467 -42 06 30.51785
 2018-Dec-24 14:32  m  04 36 55.202262 -42 06 24.85181
 2018-Dec-24 14:33  m  04 36 55.416538 -42 06 19.18519
 2018-Dec-24 14:34  m  04 36 55.631295 -42 06 13.51800
 2018-Dec-24 14:35  m  04 36 55.846534 -42 06 07.85026
 2018-Dec-24 14:36  m  04 36 56.062254 -42 06 02.18197
 2018-Dec-24 14:37  m  04 36 56.278457 -42 05 56.51317
 2018-Dec-24 14:38  m  04 36 56.495141 -42 05 50.84386
 2018-Dec-24 14:39  m  04 36 56.712307 -42 05 45.17405
 2018-Dec-24 14:40  m  04 36 56.929954 -42 05 39.50377
 2018-Dec-24 14:41  m  04 36 57.148084 -42 05 33.83303
 2018-Dec-24 14:42  m  04 36 57.366697 -42 05 28.16184
 2018-Dec-24 14:43  m  04 36 57.585791 -42 05 22.49022
 2018-Dec-24 14:44  m  04 36 57.805367 -42 05 16.81819
 2018-Dec-24 14:45  m  04 36 58.025426 -42 05 11.14576
 2018-Dec-24 14:46  m  04 36 58.245967 -42 05 05.47294
 2018-Dec-24 14:47  m  04 36 58.466991 -42 04 59.79976
 2018-Dec-24 14:48  m  04 36 58.688496 -42 04 54.12622
 2018-Dec-24 14:49  m  04 36 58.910484 -42 04 48.45235
 2018-Dec-24 14:50  m  04 36 59.132955 -42 04 42.77816
 2018-Dec-24 14:51  m  04 36 59.355908 -42 04 37.10366
 2018-Dec-24 14:52  m  04 36 59.579342 -42 04 31.42887
 2018-Dec-24 14:53  m  04 36 59.803260 -42 04 25.75380
 2018-Dec-24 14:54  m  04 37 00.027659 -42 04 20.07848
 2018-Dec-24 14:55  m  04 37 00.252540 -42 04 14.40291
 2018-Dec-24 14:56  m  04 37 00.477904 -42 04 08.72712
 2018-Dec-24 14:57  m  04 37 00.703750 -42 04 03.05111
 2018-Dec-24 14:58  m  04 37 00.930077 -42 03 57.37490
 2018-Dec-24 14:59  m  04 37 01.156886 -42 03 51.69851
 2018-Dec-24 15:00  m  04 37 01.384178 -42 03 46.02196
 2018-Dec-24 15:01  m  04 37 01.611950 -42 03 40.34526
 2018-Dec-24 15:02  m  04 37 01.840204 -42 03 34.66842
 2018-Dec-24 15:03  m  04 37 02.068940 -42 03 28.99145
 2018-Dec-24 15:04  m  04 37 02.298157 -42 03 23.31439
 2018-Dec-24 15:05  m  04 37 02.527855 -42 03 17.63724
 2018-Dec-24 15:06  m  04 37 02.758034 -42 03 11.96001
 2018-Dec-24 15:07  m  04 37 02.988693 -42 03 06.28272
 2018-Dec-24 15:08  m  04 37 03.219833 -42 03 00.60540
 2018-Dec-24 15:09  m  04 37 03.451454 -42 02 54.92804
 2018-Dec-24 15:10  m  04 37 03.683555 -42 02 49.25068
 2018-Dec-24 15:11  m  04 37 03.916136 -42 02 43.57331
 2018-Dec-24 15:12  m  04 37 04.149197 -42 02 37.89597
 2018-Dec-24 15:13  m  04 37 04.382737 -42 02 32.21866
 2018-Dec-24 15:14  m  04 37 04.616757 -42 02 26.54140
 2018-Dec-24 15:15  m  04 37 04.851256 -42 02 20.86421
 2018-Dec-24 15:16  m  04 37 05.086234 -42 02 15.18709
 2018-Dec-24 15:17  m  04 37 05.321691 -42 02 09.51008
 2018-Dec-24 15:18  m  04 37 05.557625 -42 02 03.83317
 2018-Dec-24 15:19  m  04 37 05.794039 -42 01 58.15640
 2018-Dec-24 15:20  m  04 37 06.030930 -42 01 52.47976
 2018-Dec-24 15:21  m  04 37 06.268298 -42 01 46.80328
 2018-Dec-24 15:22  m  04 37 06.506144 -42 01 41.12698
 2018-Dec-24 15:23  m  04 37 06.744466 -42 01 35.45086
 2018-Dec-24 15:24  m  04 37 06.983266 -42 01 29.77494
 2018-Dec-24 15:25  m  04 37 07.222541 -42 01 24.09925
 2018-Dec-24 15:26  m  04 37 07.462293 -42 01 18.42379
 2018-Dec-24 15:27  m  04 37 07.702520 -42 01 12.74858
 2018-Dec-24 15:28  m  04 37 07.943223 -42 01 07.07363
 2018-Dec-24 15:29  m  04 37 08.184400 -42 01 01.39897
 2018-Dec-24 15:30  m  04 37 08.426053 -42 00 55.72460
 2018-Dec-24 15:31  m  04 37 08.668179 -42 00 50.05053
 2018-Dec-24 15:32  m  04 37 08.910779 -42 00 44.37680
 2018-Dec-24 15:33  m  04 37 09.153852 -42 00 38.70341
 2018-Dec-24 15:34  m  04 37 09.397399 -42 00 33.03037
 2018-Dec-24 15:35 Am  04 37 09.641418 -42 00 27.35770
 2018-Dec-24 15:36 Am  04 37 09.885909 -42 00 21.68542
 2018-Dec-24 15:37 Am  04 37 10.130872 -42 00 16.01354
 2018-Dec-24 15:38 Am  04 37 10.376306 -42 00 10.34208
 2018-Dec-24 15:39 Am  04 37 10.622211 -42 00 04.67105
 2018-Dec-24 15:40 Am  04 37 10.868586 -41 59 59.00047
 2018-Dec-24 15:41 Am  04 37 11.115432 -41 59 53.33035
 2018-Dec-24 15:42 Am  04 37 11.362746 -41 59 47.66070
 2018-Dec-24 15:43 Am  04 37 11.610530 -41 59 41.99155
 2018-Dec-24 15:44 Am  04 37 11.858782 -41 59 36.32291
 2018-Dec-24 15:45 Am  04 37 12.107502 -41 59 30.65478
 2018-Dec-24 15:46 Am  04 37 12.356690 -41 59 24.98720
 2018-Dec-24 15:47 Am  04 37 12.606344 -41 59 19.32016
 2018-Dec-24 15:48 Am  04 37 12.856465 -41 59 13.65370
 2018-Dec-24 15:49 Am  04 37 13.107052 -41 59 07.98782
 2018-Dec-24 15:50 Am  04 37 13.358104 -41 59 02.32253
 2018-Dec-24 15:51 Am  04 37 13.609621 -41 58 56.65785
 2018-Dec-24 15:52 Am  04 37 13.861602 -41 58 50.99381
 2018-Dec-24 15:53 Am  04 37 14.114046 -41 58 45.33040
 2018-Dec-24 15:54 Am  04 37 14.366954 -41 58 39.66765
 2018-Dec-24 15:55 Am  04 37 14.620324 -41 58 34.00557
 2018-Dec-24 15:56 Am  04 37 14.874156 -41 58 28.34418
 2018-Dec-24 15:57 Am  04 37 15.128450 -41 58 22.68349
 2018-Dec-24 15:58 Am  04 37 15.383203 -41 58 17.02352
 2018-Dec-24 15:59 Am  04 37 15.638417 -41 58 11.36427
 2018-Dec-24 16:00 Am  04 37 15.894091 -41 58 05.70577
 2018-Dec-24 16:01 Am  04 37 16.150223 -41 58 00.04803
 2018-Dec-24 16:02 Am  04 37 16.406813 -41 57 54.39107
 2018-Dec-24 16:03 Nm  04 37 16.663860 -41 57 48.73490
 2018-Dec-24 16:04 Nm  04 37 16.921365 -41 57 43.07953
 2018-Dec-24 16:05 Nm  04 37 17.179325 -41 57 37.42497
 2018-Dec-24 16:06 Nm  04 37 17.437741 -41 57 31.77126
 2018-Dec-24 16:07 Nm  04 37 17.696612 -41 57 26.11838
 2018-Dec-24 16:08 Nm  04 37 17.955936 -41 57 20.46638
 2018-Dec-24 16:09 Nm  04 37 18.215714 -41 57 14.81525
 2018-Dec-24 16:10 Nm  04 37 18.475944 -41 57 09.16501
 2018-Dec-24 16:11 Nm  04 37 18.736627 -41 57 03.51567
 2018-Dec-24 16:12 Nm  04 37 18.997760 -41 56 57.86726
 2018-Dec-24 16:13 Nm  04 37 19.259344 -41 56 52.21978
 2018-Dec-24 16:14 Nm  04 37 19.521377 -41 56 46.57325
 2018-Dec-24 16:15 Nm  04 37 19.783860 -41 56 40.92769
 2018-Dec-24 16:16 Nm  04 37 20.046790 -41 56 35.28310
